[{"OBJECT_NAME":"TIANQI-26","OBJECT_ID":"2024-102B","EPOCH":"2026-03-09T21:33:43.495776","MEAN_MOTION":13.99145229,"ECCENTRICITY":0.0008546,"INCLINATION":44.9752,"RA_OF_ASC_NODE":343.3823,"ARG_OF_PERICENTER":134.6723,"MEAN_ANOMALY":225.4807,"EPHEMERIS_TYPE":0,"CLASSIFICATION_TYPE":"U","NORAD_CAT_ID":59910,"ELEMENT_SET_NO":999,"REV_AT_EPOCH":9100,"BSTAR":0.00025279708,"MEAN_MOTION_DOT":2.4e-6,"MEAN_MOTION_DDOT":0},{"OBJECT_NAME":"UNKNOWN","OBJECT_ID":"","EPOCH":"2026-03-08T10:51:41.262624","MEAN_MOTION":14.21788685,"ECCENTRICITY":0.01020234,"INCLINATION":98.6814,"RA_OF_ASC_NODE":337.3442,"ARG_OF_PERICENTER":33.5666,"MEAN_ANOMALY":327.192,"EPHEMERIS_TYPE":0,"CLASSIFICATION_TYPE":"U","NORAD_CAT_ID":270342,"ELEMENT_SET_NO":999,"REV_AT_EPOCH":23476,"BSTAR":0.0032554652,"MEAN_MOTION_DOT":7.517e-5,"MEAN_MOTION_DDOT":0}]
